ONEWEB-0328             
1 49197U 21083M   25093.29581525  .00000019  00000+0  18013-4 0  9996
2 49197  87.8949  47.6296 0001799  82.8381 277.2953 13.13469829173155
ONEWEB-0331             
1 49198U 21083N   25093.44413717  .00000013  00000+0  11435-6 0  9998
2 49198  87.9093  62.8673 0001885  93.4009 266.7339 13.18688449172051
ONEWEB-0333             
1 49199U 21083P   25093.59544650 -.00000222  00000+0 -64304-3 0  9990
2 49199  87.8958  47.6277 0001924  78.8063 281.3282 13.13469957173207
ONEWEB-0334             
1 49200U 21083Q   25093.45015163  .00000127  00000+0  28067-3 0  9998
2 49200  87.9328   2.0102 0002504  56.5937 303.5435 13.20779931178747
ONEWEB-0335             
1 49201U 21083R   25093.81890399 -.00000322  00000+0 -91563-3 0  9991
2 49201  87.8962  47.5714 0001999  88.0239 272.1119 13.13469427174537
ONEWEB-0336             
1 49202U 21083S   25093.56159244  .00000287  00000+0  75008-3 0  9995
2 49202  87.8961  47.6167 0002062  81.4032 278.7331 13.13469938173208
ONEWEB-0337             
1 49203U 21083T   25093.57161493  .00000035  00000+0  62235-4 0  9996
2 49203  87.8961  47.6137 0001748  84.1743 275.9585 13.13470444173209
ONEWEB-0338             
1 49204U 21083U   25093.27334848 -.00000001  00000+0 -34819-4 0  9992
2 49204  87.9332   2.0310 0001950  68.5030 291.6311 13.20770048178748
ONEWEB-0339             
1 49205U 21083V   25093.58021201 -.00000133  00000+0 -40007-3 0  9994
2 49205  87.8960  47.6006 0001803  77.9979 282.1352 13.13469979173188
ONEWEB-0340             
1 49206U 21083W   25093.42991531  .00000135  00000+0  31010-3 0  9994
2 49206  87.9093  62.8671 0001919  88.3007 271.8344 13.18684800172014
ONEWEB-0341             
1 49207U 21083X   25093.43781321  .00000085  00000+0  18213-3 0  9994
2 49207  87.9092  62.8759 0001285  87.0116 273.1163 13.18688621172035
ONEWEB-0342             
1 49208U 21083Y   25093.50693715 -.00000016  00000+0 -71960-4 0  9997
2 49208  87.9324   1.9702 0001859  74.6648 285.4691 13.20770466178743
ONEWEB-0343             
1 49209U 21083Z   25093.43305250  .00000134  00000+0  30632-3 0  9993
2 49209  87.9087  62.8669 0001361  72.1701 287.9579 13.18687837172088
ONEWEB-0344             
1 49210U 21083AA  25093.56277078  .00000277  00000+0  74036-3 0  9999
2 49210  87.8959  47.6360 0001547  88.1058 272.0247 13.11938599173180
ONEWEB-0345             
1 49211U 21083AB  25093.56667108  .00000161  00000+0  40703-3 0  9993
2 49211  87.8958  47.5958 0001433  88.1056 272.0237 13.13472354173198
ONEWEB-0346             
1 49212U 21083AC  25093.67018643 -.00000058  00000+0 -18089-3 0  9999
2 49212  87.9095  62.8390 0002166  96.0443 264.0936 13.18684466173342
ONEWEB-0348             
1 49213U 21083AD  25093.49747272 -.00000016  00000+0 -70475-4 0  9999
2 49213  87.9333   1.9716 0001649 100.9865 259.1454 13.20771872178775
ONEWEB-0350             
1 49214U 21083AE  25093.42278294 -.00000092  00000+0 -28732-3 0  9998
2 49214  87.8959  47.6153 0001624  86.5243 273.6071 13.13469504173200
ONEWEB-0351             
1 49215U 21083AF  25093.49101063 -.00000004  00000+0 -42311-4 0  9998
2 49215  87.9330   1.9593 0001795  51.5587 308.5708 13.20769492178733
ONEWEB-0352             
1 49216U 21083AG  25093.40416463  .00000358  00000+0  94652-3 0  9997
2 49216  87.8960  47.6584 0001759  67.5188 292.6128 13.13469524173293
ONEWEB-0354             
1 49217U 21083AH  25093.44064900  .00000083  00000+0  17199-3 0  9993
2 49217  87.9333   1.9648 0001554  85.9235 274.2076 13.20771037178761
ONEWEB-0355             
1 49218U 21083AJ  25093.58529231 -.00000292  00000+0 -83497-3 0  9990
2 49218  87.8963  47.6204 0001725  77.9603 282.1719 13.13469648173193
ONEWEB-0357             
1 49219U 21083AK  25093.43749913  .00000084  00000+0  17479-3 0  9990
2 49219  87.9329   1.9742 0001702  73.6699 286.4621 13.20772393178763
ONEWEB-0332             
1 49279U 21090A   25093.48619455  .00000080  00000+0  18122-3 0  9998
2 49279  87.9092  17.1607 0001980  70.7125 289.4219 13.14503889169812
ONEWEB-0347             
1 49280U 21090B   25093.50378391  .00000044  00000+0  76217-4 0  9994
2 49280  87.9332   1.9672 0002180  74.1462 285.9912 13.20772958173008
ONEWEB-0349             
1 49281U 21090C   25093.76261544  .00000078  00000+0  16065-3 0  9995
2 49281  87.9336   1.9205 0001928  77.9302 282.2047 13.20772735173112
ONEWEB-0353             
1 49282U 21090D   25093.47826309  .00000237  00000+0  60410-3 0  9990
2 49282  87.9090  17.1486 0002029  71.9944 288.1406 13.14503370169815
ONEWEB-0356             
1 49283U 21090E   25093.45801437  .00000146  00000+0  32691-3 0  9993
2 49283  87.9335   1.9725 0002539  95.4699 264.6724 13.20772915171780
ONEWEB-0358             
1 49284U 21090F   25093.71526937 -.00000034  00000+0 -11432-3 0  9990
2 49284  87.9333   1.9110 0001848  84.9705 275.1639 13.20770580173836
ONEWEB-0359             
1 49285U 21090G   25093.48483937 -.00000028  00000+0 -10033-3 0  9996
2 49285  87.9333   1.9702 0001530  87.9947 272.1362 13.20770129172493
ONEWEB-0360             
1 49286U 21090H   25093.47536885  .00000142  00000+0  31707-3 0  9993
2 49286  87.9331   1.9776 0001699  81.6651 278.4675 13.20770249171805
ONEWEB-0361             
1 49287U 21090J   25093.45642468  .00000314  00000+0  73934-3 0  9996
2 49287  87.9332   1.9767 0001918  82.2534 277.8817 13.20772825172251
ONEWEB-0362             
1 49288U 21090K   25093.51563825 -.00000010  00000+0 -57371-4 0  9996
2 49288  87.9243  32.3754 0001735  74.4464 285.6860 13.19723696168923
ONEWEB-0363             
1 49289U 21090L   25093.47221491  .00000055  00000+0  10269-3 0  9993
2 49289  87.9332   1.9685 0002079  89.2979 270.8393 13.20770391172260
ONEWEB-0364             
1 49290U 21090M   25093.43433027  .00000038  00000+0  60961-4 0  9997
2 49290  87.9335   2.0052 0001994  81.7709 278.3651 13.20769617173392
ONEWEB-0365             
1 49291U 21090N   25093.82838684  .00000016  00000+0  84753-5 0  9991
2 49291  87.9239  32.2745 0001943  74.5823 285.5524 13.19725070169769
ONEWEB-0366             
1 49292U 21090P   25093.55120441  .00000169  00000+0  42158-3 0  9997
2 49292  87.9092  17.1460 0001852  79.7105 280.4234 13.14502626169804
ONEWEB-0367             
1 49293U 21090Q   25093.47063055  .00000148  00000+0  33272-3 0  9990
2 49293  87.9332   1.9640 0001724  71.6049 288.5272 13.20770287171787
ONEWEB-0368             
1 49294U 21090R   25093.44381490  .00000136  00000+0  30320-3 0  9992
2 49294  87.9333   2.0017 0002656  76.8880 283.2549 13.20772566172933
ONEWEB-0369             
1 49295U 21090S   25093.52037639  .00000066  00000+0  13180-3 0  9992
2 49295  87.9244  32.3585 0001925  76.5476 283.5871 13.19728887168422
ONEWEB-0370             
1 49296U 21090T   25093.48010498  .00000038  00000+0  61596-4 0  9996
2 49296  87.9332   1.9671 0001489  77.2584 282.8716 13.20770395171823
ONEWEB-0371             
1 49297U 21090U   25093.30082589  .00000129  00000+0  29026-3 0  9990
2 49297  87.9246  32.3921 0001880  75.9242 284.2099 13.19723656168434
ONEWEB-0372             
1 49298U 21090V   25093.46892112  .00000077  00000+0  15822-3 0  9990
2 49298  87.9333   1.9786 0001939  74.7492 285.3855 13.20769469171791
ONEWEB-0373             
1 49299U 21090W   25093.79891884 -.00000030  00000+0 -10689-3 0  9999
2 49299  87.9333   1.9253 0002029  84.1422 275.9943 13.20770532174328
ONEWEB-0374             
1 49300U 21090X   25093.53852930  .00000208  00000+0  52702-3 0  9990
2 49300  87.9090  17.1298 0002338  85.9101 274.2296 13.14504157169806
ONEWEB-0375             
1 49301U 21090Y   25093.71053885 -.00000037  00000+0 -12345-3 0  9994
2 49301  87.9331   1.9204 0002117  96.2953 263.8422 13.20771304173805
ONEWEB-0376             
1 49302U 21090Z   25093.29924699 -.00000182  00000+0 -48690-3 0  9991
2 49302  87.9239  32.3816 0001988  71.6236 288.5113 13.19725770168434
ONEWEB-0377             
1 49303U 21090AA  25093.46918729 -.00000285  00000+0 -73167-3 0  9999
2 49303  87.9334   1.9608 0001596  84.7088 275.4227 13.20770600172471
ONEWEB-0378             
1 49304U 21090AB  25093.79431741 -.00000035  00000+0 -11760-3 0  9994
2 49304  87.9335   1.9028 0001929  82.4693 277.6660 13.20770861173101
ONEWEB-0379             
1 49305U 21090AC  25093.53376244  .00000343  00000+0  89031-3 0  9999
2 49305  87.9089  17.1351 0001962  76.9712 283.1637 13.14505109169805
ONEWEB-0380             
1 49306U 21090AD  25093.29608444  .00000113  00000+0  24965-3 0  9993
2 49306  87.9245  32.4053 0001871  85.7322 274.4025 13.19722672168403
ONEWEB-0381             
1 49307U 21090AE  25093.16288062  .00000226  00000+0  52313-3 0  9993
2 49307  87.9334   2.0293 0001876  86.5153 273.6195 13.20774770171746
ONEWEB-0382             
1 49308U 21090AF  25093.75630450 -.00000002  00000+0 -37283-4 0  9995
2 49308  87.9332   1.9067 0002109  86.2128 273.9246 13.20769992173125
ONEWEB-0383             
1 49309U 21090AG  25093.29907039  .00000185  00000+0  46460-3 0  9991
2 49309  87.9085  17.1637 0002048  79.2889 280.8471 13.14503470169808
ONEWEB-0384             
1 49310U 21090AH  25093.44998989  .00000083  00000+0  17197-3 0  9996
2 49310  87.9335   1.9833 0002296  87.7400 272.3996 13.20778399171784
ONEWEB-0385             
1 49311U 21090AJ  25093.44538119  .00000125  00000+0  27572-3 0  9997
2 49311  87.9335   1.9848 0001962  82.2353 277.9003 13.20769336171755
ONEWEB-0386             
1 49312U 21090AK  25093.46274750  .00000198  00000+0  45425-3 0  9995
2 49312  87.9331   1.9565 0002187  82.8027 277.3355 13.20769359171773
ONEWEB-0387             
1 49313U 21090AL  25093.44695891  .00000187  00000+0  42822-3 0  9993
2 49313  87.9317   2.0293 0001802  90.1953 269.9387 13.20771439171775
ONEWEB-0388             
1 49314U 21090AM  25093.51880541  .00000055  00000+0  10583-3 0  9993
2 49314  87.9245  32.3658 0001987  81.4149 278.7208 13.19728408168425
